{"type": "FeatureCollection", "features": [{"type": "Feature", "geometry": {"type": "Point", "coordinates": [25.5, 37.5]}, "properties": {"id": "MED1289", "year": 2024, "month": "November", "route": "Eastern", "details": "Deaths recorded in Eastern Med", "count": 27, "data_missing": false}}, {"type": "Feature", "geometry": {"type": "Point", "coordinates": [-5.5, 35.9]}, "properties": {"id": "MED1287", "year": 2024, "month": "December", "route": "Western", "details": "Deaths recorded in Western Med", "count": 47, "data_missing": false}}, {"type": "Feature", "geometry": {"type": "Point", "coordinates": [12.5, 34.5]}, "properties": {"id": "MED1285", "year": 2024, "month": "December", "route": "Central", "details": "Deaths recorded in Central Med", "count": 191, "data_missing": false}}, {"type": "Feature", "geometry": {"type": "Point", "coordinates": [12.5, 34.5]}, "properties": {"id": "MED1279", "year": 2024, "month": "November", "route": "Central", "details": "Deaths recorded in Central Med", "count": 163, "data_missing": false}}, {"type": "Feature", "geometry": {"type": "Point", "coordinates": [12.5, 34.5]}, "properties": {"id": "MED1278", "year": 2024, "month": "October", "route": "Central", "details": "Deaths recorded in Central Med", "count": 102, "data_missing": false}}, {"type": "Feature", "geometry": {"type": "Point", "coordinates": [12.5, 34.5]}, "properties": {"id": "MED1277", "year": 2024, "month": "September", "route": "Central", "details": "Deaths recorded in Central Med", "count": 198, "data_missing": false}}, {"type": "Feature", "geometry": {"type": "Point", "coordinates": [12.5, 34.5]}, "properties": {"id": "MED1276", "year": 2024, "month": "August", "route": "Central", "details": "Deaths recorded in Central Med", "count": 94, "data_missing": false}}, {"type": "Feature", "geometry": {"type": "Point", "coordinates": [12.5, 34.5]}, "properties": {"id": "MED1275", "year": 2024, "month": "July", "route": "Central", "details": "Deaths recorded in Central Med", "count": 80, "data_missing": false}}, {"type": "Feature", "geometry": {"type": "Point", "coordinates": [25.5, 37.5]}, "properties": {"id": "MED1274", "year": 2024, "month": "December", "route": "Eastern", "details": "Deaths recorded in Eastern Med", "count": 58, "data_missing": false}}, {"type": "Feature", "geometry": {"type": "Point", "coordinates": [25.5, 37.5]}, "properties": {"id": "MED1273", "year": 2024, "month": "October", "route": "Eastern", "details": "Deaths recorded in Eastern Med", "count": 10, "data_missing": false}}, {"type": "Feature", "geometry": {"type": "Point", "coordinates": [25.5, 37.5]}, "properties": {"id": "MED1272", "year": 2024, "month": "September", "route": "Eastern", "details": "Deaths recorded in Eastern Med", "count": 5, "data_missing": false}}, {"type": "Feature", "geometry": {"type": "Point", "coordinates": [25.5, 37.5]}, "properties": {"id": "MED1271", "year": 2024, "month": "August", "route": "Eastern", "details": "Deaths recorded in Eastern Med", "count": 2, "data_missing": false}}, {"type": "Feature", "geometry": {"type": "Point", "coordinates": [25.5, 37.5]}, "properties": {"id": "MED1270", "year": 2024, "month": "July", "route": "Eastern", "details": "Deaths recorded in Eastern Med", "count": 8, "data_missing": false}}, {"type": "Feature", "geometry": {"type": "Point", "coordinates": [-5.5, 35.9]}, "properties": {"id": "MED1269", "year": 2024, "month": "November", "route": "Western", "details": "Deaths recorded in Western Med", "count": 14, "data_missing": false}}, {"type": "Feature", "geometry": {"type": "Point", "coordinates": [-5.5, 35.9]}, "properties": {"id": "MED1268", "year": 2024, "month": "October", "route": "Western", "details": "Deaths recorded in Western Med", "count": 16, "data_missing": false}}, {"type": "Feature", "geometry": {"type": "Point", "coordinates": [-5.5, 35.9]}, "properties": {"id": "MED1267", "year": 2024, "month": "September", "route": "Western", "details": "Deaths recorded in Western Med", "count": 35, "data_missing": false}}, {"type": "Feature", "geometry": {"type": "Point", "coordinates": [-5.5, 35.9]}, "properties": {"id": "MED1266", "year": 2024, "month": "August", "route": "Western", "details": "Deaths recorded in Western Med", "count": 11, "data_missing": false}}, {"type": "Feature", "geometry": {"type": "Point", "coordinates": [-5.5, 35.9]}, "properties": {"id": "MED1265", "year": 2024, "month": "July", "route": "Western", "details": "Deaths recorded in Western Med", "count": 5, "data_missing": false}}, {"type": "Feature", "geometry": {"type": "Point", "coordinates": [25.5, 37.5]}, "properties": {"id": "MED1224", "year": 2024, "month": "June", "route": "Eastern", "details": "Deaths recorded in Eastern Med", "count": 0, "data_missing": false}}, {"type": "Feature", "geometry": {"type": "Point", "coordinates": [12.5, 34.5]}, "properties": {"id": "MED1223", "year": 2024, "month": "June", "route": "Central", "details": "Deaths recorded in Central Med", "count": 128, "data_missing": false}}, {"type": "Feature", "geometry": {"type": "Point", "coordinates": [-5.5, 35.9]}, "properties": {"id": "MED1222", "year": 2024, "month": "June", "route": "Western", "details": "Deaths recorded in Western Med", "count": 38, "data_missing": false}}, {"type": "Feature", "geometry": {"type": "Point", "coordinates": [25.5, 37.5]}, "properties": {"id": "MED1212", "year": 2024, "month": "May", "route": "Eastern", "details": "Deaths recorded in Eastern Med", "count": 5, "data_missing": false}}, {"type": "Feature", "geometry": {"type": "Point", "coordinates": [12.5, 34.5]}, "properties": {"id": "MED1211", "year": 2024, "month": "May", "route": "Central", "details": "Deaths recorded in Central Med", "count": 189, "data_missing": false}}, {"type": "Feature", "geometry": {"type": "Point", "coordinates": [-5.5, 35.9]}, "properties": {"id": "MED1210", "year": 2024, "month": "May", "route": "Western", "details": "Deaths recorded in Western Med", "count": 100, "data_missing": false}}, {"type": "Feature", "geometry": {"type": "Point", "coordinates": [25.5, 37.5]}, "properties": {"id": "MED1200", "year": 2024, "month": "April", "route": "Eastern", "details": "Deaths recorded in Eastern Med", "count": 9, "data_missing": false}}, {"type": "Feature", "geometry": {"type": "Point", "coordinates": [12.5, 34.5]}, "properties": {"id": "MED1199", "year": 2024, "month": "April", "route": "Central", "details": "Deaths recorded in Central Med", "count": 184, "data_missing": false}}, {"type": "Feature", "geometry": {"type": "Point", "coordinates": [-5.5, 35.9]}, "properties": {"id": "MED1198", "year": 2024, "month": "April", "route": "Western", "details": "Deaths recorded in Western Med", "count": 7, "data_missing": false}}, {"type": "Feature", "geometry": {"type": "Point", "coordinates": [25.5, 37.5]}, "properties": {"id": "MED1188", "year": 2024, "month": "March", "route": "Eastern", "details": "Deaths recorded in Eastern Med", "count": 22, "data_missing": false}}, {"type": "Feature", "geometry": {"type": "Point", "coordinates": [12.5, 34.5]}, "properties": {"id": "MED1187", "year": 2024, "month": "March", "route": "Central", "details": "Deaths recorded in Central Med", "count": 175, "data_missing": false}}, {"type": "Feature", "geometry": {"type": "Point", "coordinates": [-5.5, 35.9]}, "properties": {"id": "MED1186", "year": 2024, "month": "March", "route": "Western", "details": "Deaths recorded in Western Med", "count": 26, "data_missing": false}}, {"type": "Feature", "geometry": {"type": "Point", "coordinates": [25.5, 37.5]}, "properties": {"id": "MED1176", "year": 2024, "month": "February", "route": "Eastern", "details": "Deaths recorded in Eastern Med", "count": 4, "data_missing": false}}, {"type": "Feature", "geometry": {"type": "Point", "coordinates": [12.5, 34.5]}, "properties": {"id": "MED1175", "year": 2024, "month": "February", "route": "Central", "details": "Deaths recorded in Central Med", "count": 121, "data_missing": false}}, {"type": "Feature", "geometry": {"type": "Point", "coordinates": [-5.5, 35.9]}, "properties": {"id": "MED1174", "year": 2024, "month": "February", "route": "Western", "details": "Deaths recorded in Western Med", "count": 89, "data_missing": false}}, {"type": "Feature", "geometry": {"type": "Point", "coordinates": [25.5, 37.5]}, "properties": {"id": "MED1164", "year": 2024, "month": "January", "route": "Eastern", "details": "Deaths recorded in Eastern Med", "count": 23, "data_missing": false}}, {"type": "Feature", "geometry": {"type": "Point", "coordinates": [12.5, 34.5]}, "properties": {"id": "MED1163", "year": 2024, "month": "January", "route": "Central", "details": "Deaths recorded in Central Med", "count": 88, "data_missing": false}}, {"type": "Feature", "geometry": {"type": "Point", "coordinates": [-5.5, 35.9]}, "properties": {"id": "MED1162", "year": 2024, "month": "January", "route": "Western", "details": "Deaths recorded in Western Med", "count": 52, "data_missing": false}}, {"type": "Feature", "geometry": {"type": "Point", "coordinates": [25.5, 37.5]}, "properties": {"id": "MED1152", "year": 2023, "month": "December", "route": "Eastern", "details": "Deaths recorded in Eastern Med", "count": 85, "data_missing": false}}, {"type": "Feature", "geometry": {"type": "Point", "coordinates": [12.5, 34.5]}, "properties": {"id": "MED1151", "year": 2023, "month": "December", "route": "Central", "details": "Deaths recorded in Central Med", "count": 174, "data_missing": false}}, {"type": "Feature", "geometry": {"type": "Point", "coordinates": [-5.5, 35.9]}, "properties": {"id": "MED1150", "year": 2023, "month": "December", "route": "Western", "details": "Deaths recorded in Western Med", "count": 45, "data_missing": false}}, {"type": "Feature", "geometry": {"type": "Point", "coordinates": [25.5, 37.5]}, "properties": {"id": "MED1140", "year": 2023, "month": "November", "route": "Eastern", "details": "Deaths recorded in Eastern Med", "count": 10, "data_missing": false}}, {"type": "Feature", "geometry": {"type": "Point", "coordinates": [12.5, 34.5]}, "properties": {"id": "MED1139", "year": 2023, "month": "November", "route": "Central", "details": "Deaths recorded in Central Med", "count": 31, "data_missing": false}}, {"type": "Feature", "geometry": {"type": "Point", "coordinates": [-5.5, 35.9]}, "properties": {"id": "MED1138", "year": 2023, "month": "November", "route": "Western", "details": "Deaths recorded in Western Med", "count": 95, "data_missing": false}}, {"type": "Feature", "geometry": {"type": "Point", "coordinates": [25.5, 37.5]}, "properties": {"id": "MED1128", "year": 2023, "month": "October", "route": "Eastern", "details": "Deaths recorded in Eastern Med", "count": 8, "data_missing": false}}, {"type": "Feature", "geometry": {"type": "Point", "coordinates": [12.5, 34.5]}, "properties": {"id": "MED1127", "year": 2023, "month": "October", "route": "Central", "details": "Deaths recorded in Central Med", "count": 56, "data_missing": false}}, {"type": "Feature", "geometry": {"type": "Point", "coordinates": [-5.5, 35.9]}, "properties": {"id": "MED1126", "year": 2023, "month": "October", "route": "Western", "details": "Deaths recorded in Western Med", "count": 19, "data_missing": false}}, {"type": "Feature", "geometry": {"type": "Point", "coordinates": [25.5, 37.5]}, "properties": {"id": "MED1116", "year": 2023, "month": "September", "route": "Eastern", "details": "Deaths recorded in Eastern Med", "count": 4, "data_missing": false}}, {"type": "Feature", "geometry": {"type": "Point", "coordinates": [12.5, 34.5]}, "properties": {"id": "MED1115", "year": 2023, "month": "September", "route": "Central", "details": "Deaths recorded in Central Med", "count": 76, "data_missing": false}}, {"type": "Feature", "geometry": {"type": "Point", "coordinates": [-5.5, 35.9]}, "properties": {"id": "MED1114", "year": 2023, "month": "September", "route": "Western", "details": "Deaths recorded in Western Med", "count": 3, "data_missing": false}}, {"type": "Feature", "geometry": {"type": "Point", "coordinates": [25.5, 37.5]}, "properties": {"id": "MED1104", "year": 2023, "month": "August", "route": "Eastern", "details": "Deaths recorded in Eastern Med", "count": 5, "data_missing": false}}, {"type": "Feature", "geometry": {"type": "Point", "coordinates": [12.5, 34.5]}, "properties": {"id": "MED1103", "year": 2023, "month": "August", "route": "Central", "details": "Deaths recorded in Central Med", "count": 262, "data_missing": false}}, {"type": "Feature", "geometry": {"type": "Point", "coordinates": [-5.5, 35.9]}, "properties": {"id": "MED1102", "year": 2023, "month": "August", "route": "Western", "details": "Deaths recorded in Western Med", "count": 80, "data_missing": false}}, {"type": "Feature", "geometry": {"type": "Point", "coordinates": [25.5, 37.5]}, "properties": {"id": "MED1092", "year": 2023, "month": "July", "route": "Eastern", "details": "Deaths recorded in Eastern Med", "count": 0, "data_missing": false}}, {"type": "Feature", "geometry": {"type": "Point", "coordinates": [12.5, 34.5]}, "properties": {"id": "MED1091", "year": 2023, "month": "July", "route": "Central", "details": "Deaths recorded in Central Med", "count": 68, "data_missing": false}}, {"type": "Feature", "geometry": {"type": "Point", "coordinates": [-5.5, 35.9]}, "properties": {"id": "MED1090", "year": 2023, "month": "July", "route": "Western", "details": "Deaths recorded in Western Med", "count": 31, "data_missing": false}}, {"type": "Feature", "geometry": {"type": "Point", "coordinates": [25.5, 37.5]}, "properties": {"id": "MED1080", "year": 2023, "month": "June", "route": "Eastern", "details": "Deaths recorded in Eastern Med", "count": 0, "data_missing": false}}, {"type": "Feature", "geometry": {"type": "Point", "coordinates": [12.5, 34.5]}, "properties": {"id": "MED1079", "year": 2023, "month": "June", "route": "Central", "details": "Deaths recorded in Central Med", "count": 729, "data_missing": false}}, {"type": "Feature", "geometry": {"type": "Point", "coordinates": [-5.5, 35.9]}, "properties": {"id": "MED1078", "year": 2023, "month": "June", "route": "Western", "details": "Deaths recorded in Western Med", "count": 52, "data_missing": false}}, {"type": "Feature", "geometry": {"type": "Point", "coordinates": [25.5, 37.5]}, "properties": {"id": "MED1068", "year": 2023, "month": "May", "route": "Eastern", "details": "Deaths recorded in Eastern Med", "count": 12, "data_missing": false}}, {"type": "Feature", "geometry": {"type": "Point", "coordinates": [12.5, 34.5]}, "properties": {"id": "MED1067", "year": 2023, "month": "May", "route": "Central", "details": "Deaths recorded in Central Med", "count": 91, "data_missing": false}}, {"type": "Feature", "geometry": {"type": "Point", "coordinates": [-5.5, 35.9]}, "properties": {"id": "MED1066", "year": 2023, "month": "May", "route": "Western", "details": "Deaths recorded in Western Med", "count": 43, "data_missing": false}}, {"type": "Feature", "geometry": {"type": "Point", "coordinates": [25.5, 37.5]}, "properties": {"id": "MED1056", "year": 2023, "month": "April", "route": "Eastern", "details": "Deaths recorded in Eastern Med", "count": 1, "data_missing": false}}, {"type": "Feature", "geometry": {"type": "Point", "coordinates": [12.5, 34.5]}, "properties": {"id": "MED1055", "year": 2023, "month": "April", "route": "Central", "details": "Deaths recorded in Central Med", "count": 512, "data_missing": false}}, {"type": "Feature", "geometry": {"type": "Point", "coordinates": [-5.5, 35.9]}, "properties": {"id": "MED1054", "year": 2023, "month": "April", "route": "Western", "details": "Deaths recorded in Western Med", "count": 49, "data_missing": false}}, {"type": "Feature", "geometry": {"type": "Point", "coordinates": [25.5, 37.5]}, "properties": {"id": "MED1044", "year": 2023, "month": "March", "route": "Eastern", "details": "Deaths recorded in Eastern Med", "count": 22, "data_missing": false}}, {"type": "Feature", "geometry": {"type": "Point", "coordinates": [12.5, 34.5]}, "properties": {"id": "MED1043", "year": 2023, "month": "March", "route": "Central", "details": "Deaths recorded in Central Med", "count": 200, "data_missing": false}}, {"type": "Feature", "geometry": {"type": "Point", "coordinates": [-5.5, 35.9]}, "properties": {"id": "MED1042", "year": 2023, "month": "March", "route": "Western", "details": "Deaths recorded in Western Med", "count": 19, "data_missing": false}}, {"type": "Feature", "geometry": {"type": "Point", "coordinates": [25.5, 37.5]}, "properties": {"id": "MED1032", "year": 2023, "month": "February", "route": "Eastern", "details": "Deaths recorded in Eastern Med", "count": 16, "data_missing": false}}, {"type": "Feature", "geometry": {"type": "Point", "coordinates": [12.5, 34.5]}, "properties": {"id": "MED1031", "year": 2023, "month": "February", "route": "Central", "details": "Deaths recorded in Central Med", "count": 252, "data_missing": false}}, {"type": "Feature", "geometry": {"type": "Point", "coordinates": [-5.5, 35.9]}, "properties": {"id": "MED1030", "year": 2023, "month": "February", "route": "Western", "details": "Deaths recorded in Western Med", "count": 3, "data_missing": false}}, {"type": "Feature", "geometry": {"type": "Point", "coordinates": [25.5, 37.5]}, "properties": {"id": "MED1020", "year": 2023, "month": "January", "route": "Eastern", "details": "Deaths recorded in Eastern Med", "count": 8, "data_missing": false}}, {"type": "Feature", "geometry": {"type": "Point", "coordinates": [12.5, 34.5]}, "properties": {"id": "MED1019", "year": 2023, "month": "January", "route": "Central", "details": "Deaths recorded in Central Med", "count": 49, "data_missing": false}}, {"type": "Feature", "geometry": {"type": "Point", "coordinates": [-5.5, 35.9]}, "properties": {"id": "MED1018", "year": 2023, "month": "January", "route": "Western", "details": "Deaths recorded in Western Med", "count": 19, "data_missing": false}}, {"type": "Feature", "geometry": {"type": "Point", "coordinates": [25.5, 37.5]}, "properties": {"id": "MED1008", "year": 2022, "month": "December", "route": "Eastern", "details": "Deaths recorded in Eastern Med", "count": 10, "data_missing": false}}, {"type": "Feature", "geometry": {"type": "Point", "coordinates": [12.5, 34.5]}, "properties": {"id": "MED1007", "year": 2022, "month": "December", "route": "Central", "details": "Deaths recorded in Central Med", "count": 29, "data_missing": false}}, {"type": "Feature", "geometry": {"type": "Point", "coordinates": [-5.5, 35.9]}, "properties": {"id": "MED1006", "year": 2022, "month": "December", "route": "Western", "details": "Deaths recorded in Western Med", "count": 93, "data_missing": false}}, {"type": "Feature", "geometry": {"type": "Point", "coordinates": [25.5, 37.5]}, "properties": {"id": "MED0996", "year": 2022, "month": "November", "route": "Eastern", "details": "Deaths recorded in Eastern Med", "count": 60, "data_missing": false}}, {"type": "Feature", "geometry": {"type": "Point", "coordinates": [12.5, 34.5]}, "properties": {"id": "MED0995", "year": 2022, "month": "November", "route": "Central", "details": "Deaths recorded in Central Med", "count": 37, "data_missing": false}}, {"type": "Feature", "geometry": {"type": "Point", "coordinates": [-5.5, 35.9]}, "properties": {"id": "MED0994", "year": 2022, "month": "November", "route": "Western", "details": "Deaths recorded in Western Med", "count": 12, "data_missing": false}}, {"type": "Feature", "geometry": {"type": "Point", "coordinates": [25.5, 37.5]}, "properties": {"id": "MED0984", "year": 2022, "month": "October", "route": "Eastern", "details": "Deaths recorded in Eastern Med", "count": 49, "data_missing": false}}, {"type": "Feature", "geometry": {"type": "Point", "coordinates": [12.5, 34.5]}, "properties": {"id": "MED0983", "year": 2022, "month": "October", "route": "Central", "details": "Deaths recorded in Central Med", "count": 188, "data_missing": false}}, {"type": "Feature", "geometry": {"type": "Point", "coordinates": [-5.5, 35.9]}, "properties": {"id": "MED0982", "year": 2022, "month": "October", "route": "Western", "details": "Deaths recorded in Western Med", "count": 92, "data_missing": false}}, {"type": "Feature", "geometry": {"type": "Point", "coordinates": [25.5, 37.5]}, "properties": {"id": "MED0972", "year": 2022, "month": "September", "route": "Eastern", "details": "Deaths recorded in Eastern Med", "count": 163, "data_missing": false}}, {"type": "Feature", "geometry": {"type": "Point", "coordinates": [12.5, 34.5]}, "properties": {"id": "MED0971", "year": 2022, "month": "September", "route": "Central", "details": "Deaths recorded in Central Med", "count": 139, "data_missing": false}}, {"type": "Feature", "geometry": {"type": "Point", "coordinates": [-5.5, 35.9]}, "properties": {"id": "MED0970", "year": 2022, "month": "September", "route": "Western", "details": "Deaths recorded in Western Med", "count": 100, "data_missing": false}}, {"type": "Feature", "geometry": {"type": "Point", "coordinates": [25.5, 37.5]}, "properties": {"id": "MED0960", "year": 2022, "month": "August", "route": "Eastern", "details": "Deaths recorded in Eastern Med", "count": 35, "data_missing": false}}, {"type": "Feature", "geometry": {"type": "Point", "coordinates": [12.5, 34.5]}, "properties": {"id": "MED0959", "year": 2022, "month": "August", "route": "Central", "details": "Deaths recorded in Central Med", "count": 101, "data_missing": false}}, {"type": "Feature", "geometry": {"type": "Point", "coordinates": [-5.5, 35.9]}, "properties": {"id": "MED0958", "year": 2022, "month": "August", "route": "Western", "details": "Deaths recorded in Western Med", "count": 31, "data_missing": false}}, {"type": "Feature", "geometry": {"type": "Point", "coordinates": [25.5, 37.5]}, "properties": {"id": "MED0948", "year": 2022, "month": "July", "route": "Eastern", "details": "Deaths recorded in Eastern Med", "count": 2, "data_missing": false}}, {"type": "Feature", "geometry": {"type": "Point", "coordinates": [12.5, 34.5]}, "properties": {"id": "MED0947", "year": 2022, "month": "July", "route": "Central", "details": "Deaths recorded in Central Med", "count": 129, "data_missing": false}}, {"type": "Feature", "geometry": {"type": "Point", "coordinates": [-5.5, 35.9]}, "properties": {"id": "MED0946", "year": 2022, "month": "July", "route": "Western", "details": "Deaths recorded in Western Med", "count": 33, "data_missing": false}}, {"type": "Feature", "geometry": {"type": "Point", "coordinates": [25.5, 37.5]}, "properties": {"id": "MED0936", "year": 2022, "month": "June", "route": "Eastern", "details": "Deaths recorded in Eastern Med", "count": 9, "data_missing": false}}, {"type": "Feature", "geometry": {"type": "Point", "coordinates": [12.5, 34.5]}, "properties": {"id": "MED0935", "year": 2022, "month": "June", "route": "Central", "details": "Deaths recorded in Central Med", "count": 104, "data_missing": false}}, {"type": "Feature", "geometry": {"type": "Point", "coordinates": [-5.5, 35.9]}, "properties": {"id": "MED0934", "year": 2022, "month": "June", "route": "Western", "details": "Deaths recorded in Western Med", "count": 32, "data_missing": false}}, {"type": "Feature", "geometry": {"type": "Point", "coordinates": [25.5, 37.5]}, "properties": {"id": "MED0924", "year": 2022, "month": "May", "route": "Eastern", "details": "Deaths recorded in Eastern Med", "count": 1, "data_missing": false}}, {"type": "Feature", "geometry": {"type": "Point", "coordinates": [12.5, 34.5]}, "properties": {"id": "MED0923", "year": 2022, "month": "May", "route": "Central", "details": "Deaths recorded in Central Med", "count": 123, "data_missing": false}}, {"type": "Feature", "geometry": {"type": "Point", "coordinates": [-5.5, 35.9]}, "properties": {"id": "MED0922", "year": 2022, "month": "May", "route": "Western", "details": "Deaths recorded in Western Med", "count": 54, "data_missing": false}}, {"type": "Feature", "geometry": {"type": "Point", "coordinates": [25.5, 37.5]}, "properties": {"id": "MED0912", "year": 2022, "month": "April", "route": "Eastern", "details": "Deaths recorded in Eastern Med", "count": 43, "data_missing": false}}, {"type": "Feature", "geometry": {"type": "Point", "coordinates": [12.5, 34.5]}, "properties": {"id": "MED0911", "year": 2022, "month": "April", "route": "Central", "details": "Deaths recorded in Central Med", "count": 233, "data_missing": false}}, {"type": "Feature", "geometry": {"type": "Point", "coordinates": [-5.5, 35.9]}, "properties": {"id": "MED0910", "year": 2022, "month": "April", "route": "Western", "details": "Deaths recorded in Western Med", "count": 17, "data_missing": false}}, {"type": "Feature", "geometry": {"type": "Point", "coordinates": [25.5, 37.5]}, "properties": {"id": "MED0900", "year": 2022, "month": "March", "route": "Eastern", "details": "Deaths recorded in Eastern Med", "count": 7, "data_missing": false}}, {"type": "Feature", "geometry": {"type": "Point", "coordinates": [12.5, 34.5]}, "properties": {"id": "MED0899", "year": 2022, "month": "March", "route": "Central", "details": "Deaths recorded in Central Med", "count": 129, "data_missing": false}}, {"type": "Feature", "geometry": {"type": "Point", "coordinates": [-5.5, 35.9]}, "properties": {"id": "MED0898", "year": 2022, "month": "March", "route": "Western", "details": "Deaths recorded in Western Med", "count": 9, "data_missing": false}}, {"type": "Feature", "geometry": {"type": "Point", "coordinates": [25.5, 37.5]}, "properties": {"id": "MED0888", "year": 2022, "month": "February", "route": "Eastern", "details": "Deaths recorded in Eastern Med", "count": 2, "data_missing": false}}, {"type": "Feature", "geometry": {"type": "Point", "coordinates": [12.5, 34.5]}, "properties": {"id": "MED0887", "year": 2022, "month": "February", "route": "Central", "details": "Deaths recorded in Central Med", "count": 85, "data_missing": false}}, {"type": "Feature", "geometry": {"type": "Point", "coordinates": [-5.5, 35.9]}, "properties": {"id": "MED0886", "year": 2022, "month": "February", "route": "Western", "details": "Deaths recorded in Western Med", "count": 33, "data_missing": false}}, {"type": "Feature", "geometry": {"type": "Point", "coordinates": [25.5, 37.5]}, "properties": {"id": "MED0876", "year": 2022, "month": "January", "route": "Eastern", "details": "Deaths recorded in Eastern Med", "count": 2, "data_missing": false}}, {"type": "Feature", "geometry": {"type": "Point", "coordinates": [12.5, 34.5]}, "properties": {"id": "MED0875", "year": 2022, "month": "January", "route": "Central", "details": "Deaths recorded in Central Med", "count": 120, "data_missing": false}}, {"type": "Feature", "geometry": {"type": "Point", "coordinates": [-5.5, 35.9]}, "properties": {"id": "MED0874", "year": 2022, "month": "January", "route": "Western", "details": "Deaths recorded in Western Med", "count": 105, "data_missing": false}}, {"type": "Feature", "geometry": {"type": "Point", "coordinates": [25.5, 37.5]}, "properties": {"id": "MED0864", "year": 2021, "month": "December", "route": "Eastern", "details": "Deaths recorded in Eastern Med", "count": 79, "data_missing": false}}, {"type": "Feature", "geometry": {"type": "Point", "coordinates": [12.5, 34.5]}, "properties": {"id": "MED0863", "year": 2021, "month": "December", "route": "Central", "details": "Deaths recorded in Central Med", "count": 240, "data_missing": false}}, {"type": "Feature", "geometry": {"type": "Point", "coordinates": [-5.5, 35.9]}, "properties": {"id": "MED0862", "year": 2021, "month": "December", "route": "Western", "details": "Deaths recorded in Western Med", "count": 35, "data_missing": false}}, {"type": "Feature", "geometry": {"type": "Point", "coordinates": [25.5, 37.5]}, "properties": {"id": "MED0852", "year": 2021, "month": "November", "route": "Eastern", "details": "Deaths recorded in Eastern Med", "count": 6, "data_missing": false}}, {"type": "Feature", "geometry": {"type": "Point", "coordinates": [12.5, 34.5]}, "properties": {"id": "MED0851", "year": 2021, "month": "November", "route": "Central", "details": "Deaths recorded in Central Med", "count": 88, "data_missing": false}}, {"type": "Feature", "geometry": {"type": "Point", "coordinates": [-5.5, 35.9]}, "properties": {"id": "MED0850", "year": 2021, "month": "November", "route": "Western", "details": "Deaths recorded in Western Med", "count": 15, "data_missing": false}}, {"type": "Feature", "geometry": {"type": "Point", "coordinates": [25.5, 37.5]}, "properties": {"id": "MED0840", "year": 2021, "month": "October", "route": "Eastern", "details": "Deaths recorded in Eastern Med", "count": 5, "data_missing": false}}, {"type": "Feature", "geometry": {"type": "Point", "coordinates": [12.5, 34.5]}, "properties": {"id": "MED0839", "year": 2021, "month": "October", "route": "Central", "details": "Deaths recorded in Central Med", "count": 85, "data_missing": false}}, {"type": "Feature", "geometry": {"type": "Point", "coordinates": [-5.5, 35.9]}, "properties": {"id": "MED0838", "year": 2021, "month": "October", "route": "Western", "details": "Deaths recorded in Western Med", "count": 62, "data_missing": false}}, {"type": "Feature", "geometry": {"type": "Point", "coordinates": [25.5, 37.5]}, "properties": {"id": "MED0828", "year": 2021, "month": "September", "route": "Eastern", "details": "Deaths recorded in Eastern Med", "count": 4, "data_missing": false}}, {"type": "Feature", "geometry": {"type": "Point", "coordinates": [12.5, 34.5]}, "properties": {"id": "MED0827", "year": 2021, "month": "September", "route": "Central", "details": "Deaths recorded in Central Med", "count": 12, "data_missing": false}}, {"type": "Feature", "geometry": {"type": "Point", "coordinates": [-5.5, 35.9]}, "properties": {"id": "MED0826", "year": 2021, "month": "September", "route": "Western", "details": "Deaths recorded in Western Med", "count": 25, "data_missing": false}}, {"type": "Feature", "geometry": {"type": "Point", "coordinates": [25.5, 37.5]}, "properties": {"id": "MED0816", "year": 2021, "month": "August", "route": "Eastern", "details": "Deaths recorded in Eastern Med", "count": 0, "data_missing": false}}, {"type": "Feature", "geometry": {"type": "Point", "coordinates": [12.5, 34.5]}, "properties": {"id": "MED0815", "year": 2021, "month": "August", "route": "Central", "details": "Deaths recorded in Central Med", "count": 96, "data_missing": false}}, {"type": "Feature", "geometry": {"type": "Point", "coordinates": [-5.5, 35.9]}, "properties": {"id": "MED0814", "year": 2021, "month": "August", "route": "Western", "details": "Deaths recorded in Western Med", "count": 37, "data_missing": false}}, {"type": "Feature", "geometry": {"type": "Point", "coordinates": [25.5, 37.5]}, "properties": {"id": "MED0804", "year": 2021, "month": "July", "route": "Eastern", "details": "Deaths recorded in Eastern Med", "count": 11, "data_missing": false}}, {"type": "Feature", "geometry": {"type": "Point", "coordinates": [12.5, 34.5]}, "properties": {"id": "MED0803", "year": 2021, "month": "July", "route": "Central", "details": "Deaths recorded in Central Med", "count": 263, "data_missing": false}}, {"type": "Feature", "geometry": {"type": "Point", "coordinates": [-5.5, 35.9]}, "properties": {"id": "MED0802", "year": 2021, "month": "July", "route": "Western", "details": "Deaths recorded in Western Med", "count": 37, "data_missing": false}}, {"type": "Feature", "geometry": {"type": "Point", "coordinates": [25.5, 37.5]}, "properties": {"id": "MED0792", "year": 2021, "month": "June", "route": "Eastern", "details": "Deaths recorded in Eastern Med", "count": 0, "data_missing": false}}, {"type": "Feature", "geometry": {"type": "Point", "coordinates": [12.5, 34.5]}, "properties": {"id": "MED0791", "year": 2021, "month": "June", "route": "Central", "details": "Deaths recorded in Central Med", "count": 94, "data_missing": false}}, {"type": "Feature", "geometry": {"type": "Point", "coordinates": [-5.5, 35.9]}, "properties": {"id": "MED0790", "year": 2021, "month": "June", "route": "Western", "details": "Deaths recorded in Western Med", "count": 19, "data_missing": false}}, {"type": "Feature", "geometry": {"type": "Point", "coordinates": [25.5, 37.5]}, "properties": {"id": "MED0780", "year": 2021, "month": "May", "route": "Eastern", "details": "Deaths recorded in Eastern Med", "count": 0, "data_missing": false}}, {"type": "Feature", "geometry": {"type": "Point", "coordinates": [12.5, 34.5]}, "properties": {"id": "MED0779", "year": 2021, "month": "May", "route": "Central", "details": "Deaths recorded in Central Med", "count": 157, "data_missing": false}}, {"type": "Feature", "geometry": {"type": "Point", "coordinates": [-5.5, 35.9]}, "properties": {"id": "MED0778", "year": 2021, "month": "May", "route": "Western", "details": "Deaths recorded in Western Med", "count": 43, "data_missing": false}}, {"type": "Feature", "geometry": {"type": "Point", "coordinates": [25.5, 37.5]}, "properties": {"id": "MED0768", "year": 2021, "month": "April", "route": "Eastern", "details": "Deaths recorded in Eastern Med", "count": 0, "data_missing": false}}, {"type": "Feature", "geometry": {"type": "Point", "coordinates": [12.5, 34.5]}, "properties": {"id": "MED0767", "year": 2021, "month": "April", "route": "Central", "details": "Deaths recorded in Central Med", "count": 195, "data_missing": false}}, {"type": "Feature", "geometry": {"type": "Point", "coordinates": [-5.5, 35.9]}, "properties": {"id": "MED0766", "year": 2021, "month": "April", "route": "Western", "details": "Deaths recorded in Western Med", "count": 28, "data_missing": false}}, {"type": "Feature", "geometry": {"type": "Point", "coordinates": [25.5, 37.5]}, "properties": {"id": "MED0756", "year": 2021, "month": "March", "route": "Eastern", "details": "Deaths recorded in Eastern Med", "count": 4, "data_missing": false}}, {"type": "Feature", "geometry": {"type": "Point", "coordinates": [12.5, 34.5]}, "properties": {"id": "MED0755", "year": 2021, "month": "March", "route": "Central", "details": "Deaths recorded in Central Med", "count": 113, "data_missing": false}}, {"type": "Feature", "geometry": {"type": "Point", "coordinates": [-5.5, 35.9]}, "properties": {"id": "MED0754", "year": 2021, "month": "March", "route": "Western", "details": "Deaths recorded in Western Med", "count": 31, "data_missing": false}}, {"type": "Feature", "geometry": {"type": "Point", "coordinates": [25.5, 37.5]}, "properties": {"id": "MED0744", "year": 2021, "month": "February", "route": "Eastern", "details": "Deaths recorded in Eastern Med", "count": 0, "data_missing": false}}, {"type": "Feature", "geometry": {"type": "Point", "coordinates": [12.5, 34.5]}, "properties": {"id": "MED0743", "year": 2021, "month": "February", "route": "Central", "details": "Deaths recorded in Central Med", "count": 129, "data_missing": false}}, {"type": "Feature", "geometry": {"type": "Point", "coordinates": [-5.5, 35.9]}, "properties": {"id": "MED0742", "year": 2021, "month": "February", "route": "Western", "details": "Deaths recorded in Western Med", "count": 17, "data_missing": false}}, {"type": "Feature", "geometry": {"type": "Point", "coordinates": [25.5, 37.5]}, "properties": {"id": "MED0732", "year": 2021, "month": "January", "route": "Eastern", "details": "Deaths recorded in Eastern Med", "count": 2, "data_missing": false}}, {"type": "Feature", "geometry": {"type": "Point", "coordinates": [12.5, 34.5]}, "properties": {"id": "MED0731", "year": 2021, "month": "January", "route": "Central", "details": "Deaths recorded in Central Med", "count": 81, "data_missing": false}}, {"type": "Feature", "geometry": {"type": "Point", "coordinates": [-5.5, 35.9]}, "properties": {"id": "MED0730", "year": 2021, "month": "January", "route": "Western", "details": "Deaths recorded in Western Med", "count": 35, "data_missing": false}}, {"type": "Feature", "geometry": {"type": "Point", "coordinates": [25.5, 37.5]}, "properties": {"id": "MED0720", "year": 2020, "month": "December", "route": "Eastern", "details": "Deaths recorded in Eastern Med", "count": 6, "data_missing": false}}, {"type": "Feature", "geometry": {"type": "Point", "coordinates": [12.5, 34.5]}, "properties": {"id": "MED0719", "year": 2020, "month": "December", "route": "Central", "details": "Deaths recorded in Central Med", "count": 87, "data_missing": false}}, {"type": "Feature", "geometry": {"type": "Point", "coordinates": [-5.5, 35.9]}, "properties": {"id": "MED0718", "year": 2020, "month": "December", "route": "Western", "details": "Deaths recorded in Western Med", "count": 42, "data_missing": false}}, {"type": "Feature", "geometry": {"type": "Point", "coordinates": [25.5, 37.5]}, "properties": {"id": "MED0708", "year": 2020, "month": "November", "route": "Eastern", "details": "Deaths recorded in Eastern Med", "count": 2, "data_missing": false}}, {"type": "Feature", "geometry": {"type": "Point", "coordinates": [12.5, 34.5]}, "properties": {"id": "MED0707", "year": 2020, "month": "November", "route": "Central", "details": "Deaths recorded in Central Med", "count": 187, "data_missing": false}}, {"type": "Feature", "geometry": {"type": "Point", "coordinates": [-5.5, 35.9]}, "properties": {"id": "MED0706", "year": 2020, "month": "November", "route": "Western", "details": "Deaths recorded in Western Med", "count": 95, "data_missing": false}}, {"type": "Feature", "geometry": {"type": "Point", "coordinates": [25.5, 37.5]}, "properties": {"id": "MED0696", "year": 2020, "month": "October", "route": "Eastern", "details": "Deaths recorded in Eastern Med", "count": 0, "data_missing": false}}, {"type": "Feature", "geometry": {"type": "Point", "coordinates": [12.5, 34.5]}, "properties": {"id": "MED0695", "year": 2020, "month": "October", "route": "Central", "details": "Deaths recorded in Central Med", "count": 109, "data_missing": false}}, {"type": "Feature", "geometry": {"type": "Point", "coordinates": [-5.5, 35.9]}, "properties": {"id": "MED0694", "year": 2020, "month": "October", "route": "Western", "details": "Deaths recorded in Western Med", "count": 46, "data_missing": false}}, {"type": "Feature", "geometry": {"type": "Point", "coordinates": [25.5, 37.5]}, "properties": {"id": "MED0684", "year": 2020, "month": "September", "route": "Eastern", "details": "Deaths recorded in Eastern Med", "count": 20, "data_missing": false}}, {"type": "Feature", "geometry": {"type": "Point", "coordinates": [12.5, 34.5]}, "properties": {"id": "MED0683", "year": 2020, "month": "September", "route": "Central", "details": "Deaths recorded in Central Med", "count": 186, "data_missing": false}}, {"type": "Feature", "geometry": {"type": "Point", "coordinates": [-5.5, 35.9]}, "properties": {"id": "MED0682", "year": 2020, "month": "September", "route": "Western", "details": "Deaths recorded in Western Med", "count": 34, "data_missing": false}}, {"type": "Feature", "geometry": {"type": "Point", "coordinates": [25.5, 37.5]}, "properties": {"id": "MED0672", "year": 2020, "month": "August", "route": "Eastern", "details": "Deaths recorded in Eastern Med", "count": 2, "data_missing": false}}, {"type": "Feature", "geometry": {"type": "Point", "coordinates": [12.5, 34.5]}, "properties": {"id": "MED0671", "year": 2020, "month": "August", "route": "Central", "details": "Deaths recorded in Central Med", "count": 110, "data_missing": false}}, {"type": "Feature", "geometry": {"type": "Point", "coordinates": [-5.5, 35.9]}, "properties": {"id": "MED0670", "year": 2020, "month": "August", "route": "Western", "details": "Deaths recorded in Western Med", "count": 29, "data_missing": false}}, {"type": "Feature", "geometry": {"type": "Point", "coordinates": [25.5, 37.5]}, "properties": {"id": "MED0660", "year": 2020, "month": "July", "route": "Eastern", "details": "Deaths recorded in Eastern Med", "count": 0, "data_missing": false}}, {"type": "Feature", "geometry": {"type": "Point", "coordinates": [12.5, 34.5]}, "properties": {"id": "MED0659", "year": 2020, "month": "July", "route": "Central", "details": "Deaths recorded in Central Med", "count": 67, "data_missing": false}}, {"type": "Feature", "geometry": {"type": "Point", "coordinates": [-5.5, 35.9]}, "properties": {"id": "MED0658", "year": 2020, "month": "July", "route": "Western", "details": "Deaths recorded in Western Med", "count": 20, "data_missing": false}}, {"type": "Feature", "geometry": {"type": "Point", "coordinates": [25.5, 37.5]}, "properties": {"id": "MED0648", "year": 2020, "month": "June", "route": "Eastern", "details": "Deaths recorded in Eastern Med", "count": 4, "data_missing": false}}, {"type": "Feature", "geometry": {"type": "Point", "coordinates": [12.5, 34.5]}, "properties": {"id": "MED0647", "year": 2020, "month": "June", "route": "Central", "details": "Deaths recorded in Central Med", "count": 89, "data_missing": false}}, {"type": "Feature", "geometry": {"type": "Point", "coordinates": [-5.5, 35.9]}, "properties": {"id": "MED0646", "year": 2020, "month": "June", "route": "Western", "details": "Deaths recorded in Western Med", "count": 6, "data_missing": false}}, {"type": "Feature", "geometry": {"type": "Point", "coordinates": [25.5, 37.5]}, "properties": {"id": "MED0636", "year": 2020, "month": "May", "route": "Eastern", "details": "Deaths recorded in Eastern Med", "count": 0, "data_missing": false}}, {"type": "Feature", "geometry": {"type": "Point", "coordinates": [12.5, 34.5]}, "properties": {"id": "MED0635", "year": 2020, "month": "May", "route": "Central", "details": "Deaths recorded in Central Med", "count": 11, "data_missing": false}}, {"type": "Feature", "geometry": {"type": "Point", "coordinates": [-5.5, 35.9]}, "properties": {"id": "MED0634", "year": 2020, "month": "May", "route": "Western", "details": "Deaths recorded in Western Med", "count": 1, "data_missing": false}}, {"type": "Feature", "geometry": {"type": "Point", "coordinates": [25.5, 37.5]}, "properties": {"id": "MED0624", "year": 2020, "month": "April", "route": "Eastern", "details": "Deaths recorded in Eastern Med", "count": 0, "data_missing": false}}, {"type": "Feature", "geometry": {"type": "Point", "coordinates": [12.5, 34.5]}, "properties": {"id": "MED0623", "year": 2020, "month": "April", "route": "Central", "details": "Deaths recorded in Central Med", "count": 18, "data_missing": false}}, {"type": "Feature", "geometry": {"type": "Point", "coordinates": [-5.5, 35.9]}, "properties": {"id": "MED0622", "year": 2020, "month": "April", "route": "Western", "details": "Deaths recorded in Western Med", "count": 1, "data_missing": false}}, {"type": "Feature", "geometry": {"type": "Point", "coordinates": [25.5, 37.5]}, "properties": {"id": "MED0612", "year": 2020, "month": "March", "route": "Eastern", "details": "Deaths recorded in Eastern Med", "count": 4, "data_missing": false}}, {"type": "Feature", "geometry": {"type": "Point", "coordinates": [12.5, 34.5]}, "properties": {"id": "MED0611", "year": 2020, "month": "March", "route": "Central", "details": "Deaths recorded in Central Med", "count": 20, "data_missing": false}}, {"type": "Feature", "geometry": {"type": "Point", "coordinates": [-5.5, 35.9]}, "properties": {"id": "MED0610", "year": 2020, "month": "March", "route": "Western", "details": "Deaths recorded in Western Med", "count": 11, "data_missing": false}}, {"type": "Feature", "geometry": {"type": "Point", "coordinates": [25.5, 37.5]}, "properties": {"id": "MED0600", "year": 2020, "month": "February", "route": "Eastern", "details": "Deaths recorded in Eastern Med", "count": 0, "data_missing": false}}, {"type": "Feature", "geometry": {"type": "Point", "coordinates": [12.5, 34.5]}, "properties": {"id": "MED0599", "year": 2020, "month": "February", "route": "Central", "details": "Deaths recorded in Central Med", "count": 110, "data_missing": false}}, {"type": "Feature", "geometry": {"type": "Point", "coordinates": [-5.5, 35.9]}, "properties": {"id": "MED0598", "year": 2020, "month": "February", "route": "Western", "details": "Deaths recorded in Western Med", "count": 9, "data_missing": false}}, {"type": "Feature", "geometry": {"type": "Point", "coordinates": [25.5, 37.5]}, "properties": {"id": "MED0588", "year": 2020, "month": "January", "route": "Eastern", "details": "Deaths recorded in Eastern Med", "count": 68, "data_missing": false}}, {"type": "Feature", "geometry": {"type": "Point", "coordinates": [12.5, 34.5]}, "properties": {"id": "MED0587", "year": 2020, "month": "January", "route": "Central", "details": "Deaths recorded in Central Med", "count": 6, "data_missing": false}}, {"type": "Feature", "geometry": {"type": "Point", "coordinates": [-5.5, 35.9]}, "properties": {"id": "MED0586", "year": 2020, "month": "January", "route": "Western", "details": "Deaths recorded in Western Med", "count": 49, "data_missing": false}}, {"type": "Feature", "geometry": {"type": "Point", "coordinates": [25.5, 37.5]}, "properties": {"id": "MED0576", "year": 2019, "month": "December", "route": "Eastern", "details": "Deaths recorded in Eastern Med", "count": 0, "data_missing": false}}, {"type": "Feature", "geometry": {"type": "Point", "coordinates": [12.5, 34.5]}, "properties": {"id": "MED0575", "year": 2019, "month": "December", "route": "Central", "details": "Deaths recorded in Central Med", "count": 47, "data_missing": false}}, {"type": "Feature", "geometry": {"type": "Point", "coordinates": [-5.5, 35.9]}, "properties": {"id": "MED0574", "year": 2019, "month": "December", "route": "Western", "details": "Deaths recorded in Western Med", "count": 129, "data_missing": false}}, {"type": "Feature", "geometry": {"type": "Point", "coordinates": [25.5, 37.5]}, "properties": {"id": "MED0564", "year": 2019, "month": "November", "route": "Eastern", "details": "Deaths recorded in Eastern Med", "count": 0, "data_missing": false}}, {"type": "Feature", "geometry": {"type": "Point", "coordinates": [12.5, 34.5]}, "properties": {"id": "MED0563", "year": 2019, "month": "November", "route": "Central", "details": "Deaths recorded in Central Med", "count": 279, "data_missing": false}}, {"type": "Feature", "geometry": {"type": "Point", "coordinates": [-5.5, 35.9]}, "properties": {"id": "MED0562", "year": 2019, "month": "November", "route": "Western", "details": "Deaths recorded in Western Med", "count": 100, "data_missing": false}}, {"type": "Feature", "geometry": {"type": "Point", "coordinates": [25.5, 37.5]}, "properties": {"id": "MED0552", "year": 2019, "month": "October", "route": "Eastern", "details": "Deaths recorded in Eastern Med", "count": 5, "data_missing": false}}, {"type": "Feature", "geometry": {"type": "Point", "coordinates": [12.5, 34.5]}, "properties": {"id": "MED0551", "year": 2019, "month": "October", "route": "Central", "details": "Deaths recorded in Central Med", "count": 91, "data_missing": false}}, {"type": "Feature", "geometry": {"type": "Point", "coordinates": [-5.5, 35.9]}, "properties": {"id": "MED0550", "year": 2019, "month": "October", "route": "Western", "details": "Deaths recorded in Western Med", "count": 3, "data_missing": false}}, {"type": "Feature", "geometry": {"type": "Point", "coordinates": [25.5, 37.5]}, "properties": {"id": "MED0540", "year": 2019, "month": "September", "route": "Eastern", "details": "Deaths recorded in Eastern Med", "count": 9, "data_missing": false}}, {"type": "Feature", "geometry": {"type": "Point", "coordinates": [12.5, 34.5]}, "properties": {"id": "MED0539", "year": 2019, "month": "September", "route": "Central", "details": "Deaths recorded in Central Med", "count": 19, "data_missing": false}}, {"type": "Feature", "geometry": {"type": "Point", "coordinates": [-5.5, 35.9]}, "properties": {"id": "MED0538", "year": 2019, "month": "September", "route": "Western", "details": "Deaths recorded in Western Med", "count": 109, "data_missing": false}}, {"type": "Feature", "geometry": {"type": "Point", "coordinates": [25.5, 37.5]}, "properties": {"id": "MED0528", "year": 2019, "month": "August", "route": "Eastern", "details": "Deaths recorded in Eastern Med", "count": 0, "data_missing": false}}, {"type": "Feature", "geometry": {"type": "Point", "coordinates": [12.5, 34.5]}, "properties": {"id": "MED0527", "year": 2019, "month": "August", "route": "Central", "details": "Deaths recorded in Central Med", "count": 167, "data_missing": false}}, {"type": "Feature", "geometry": {"type": "Point", "coordinates": [-5.5, 35.9]}, "properties": {"id": "MED0526", "year": 2019, "month": "August", "route": "Western", "details": "Deaths recorded in Western Med", "count": 6, "data_missing": false}}, {"type": "Feature", "geometry": {"type": "Point", "coordinates": [25.5, 37.5]}, "properties": {"id": "MED0516", "year": 2019, "month": "July", "route": "Eastern", "details": "Deaths recorded in Eastern Med", "count": 1, "data_missing": false}}, {"type": "Feature", "geometry": {"type": "Point", "coordinates": [12.5, 34.5]}, "properties": {"id": "MED0515", "year": 2019, "month": "July", "route": "Central", "details": "Deaths recorded in Central Med", "count": 301, "data_missing": false}}, {"type": "Feature", "geometry": {"type": "Point", "coordinates": [-5.5, 35.9]}, "properties": {"id": "MED0514", "year": 2019, "month": "July", "route": "Western", "details": "Deaths recorded in Western Med", "count": 4, "data_missing": false}}, {"type": "Feature", "geometry": {"type": "Point", "coordinates": [25.5, 37.5]}, "properties": {"id": "MED0504", "year": 2019, "month": "June", "route": "Eastern", "details": "Deaths recorded in Eastern Med", "count": 19, "data_missing": false}}, {"type": "Feature", "geometry": {"type": "Point", "coordinates": [12.5, 34.5]}, "properties": {"id": "MED0503", "year": 2019, "month": "June", "route": "Central", "details": "Deaths recorded in Central Med", "count": 27, "data_missing": false}}, {"type": "Feature", "geometry": {"type": "Point", "coordinates": [-5.5, 35.9]}, "properties": {"id": "MED0502", "year": 2019, "month": "June", "route": "Western", "details": "Deaths recorded in Western Med", "count": 35, "data_missing": false}}, {"type": "Feature", "geometry": {"type": "Point", "coordinates": [25.5, 37.5]}, "properties": {"id": "MED0492", "year": 2019, "month": "May", "route": "Eastern", "details": "Deaths recorded in Eastern Med", "count": 18, "data_missing": false}}, {"type": "Feature", "geometry": {"type": "Point", "coordinates": [12.5, 34.5]}, "properties": {"id": "MED0491", "year": 2019, "month": "May", "route": "Central", "details": "Deaths recorded in Central Med", "count": 65, "data_missing": false}}, {"type": "Feature", "geometry": {"type": "Point", "coordinates": [-5.5, 35.9]}, "properties": {"id": "MED0490", "year": 2019, "month": "May", "route": "Western", "details": "Deaths recorded in Western Med", "count": 25, "data_missing": false}}, {"type": "Feature", "geometry": {"type": "Point", "coordinates": [25.5, 37.5]}, "properties": {"id": "MED0480", "year": 2019, "month": "April", "route": "Eastern", "details": "Deaths recorded in Eastern Med", "count": 5, "data_missing": false}}, {"type": "Feature", "geometry": {"type": "Point", "coordinates": [12.5, 34.5]}, "properties": {"id": "MED0479", "year": 2019, "month": "April", "route": "Central", "details": "Deaths recorded in Central Med", "count": 52, "data_missing": false}}, {"type": "Feature", "geometry": {"type": "Point", "coordinates": [-5.5, 35.9]}, "properties": {"id": "MED0478", "year": 2019, "month": "April", "route": "Western", "details": "Deaths recorded in Western Med", "count": 7, "data_missing": false}}, {"type": "Feature", "geometry": {"type": "Point", "coordinates": [25.5, 37.5]}, "properties": {"id": "MED0468", "year": 2019, "month": "March", "route": "Eastern", "details": "Deaths recorded in Eastern Med", "count": 11, "data_missing": false}}, {"type": "Feature", "geometry": {"type": "Point", "coordinates": [12.5, 34.5]}, "properties": {"id": "MED0467", "year": 2019, "month": "March", "route": "Central", "details": "Deaths recorded in Central Med", "count": 56, "data_missing": false}}, {"type": "Feature", "geometry": {"type": "Point", "coordinates": [-5.5, 35.9]}, "properties": {"id": "MED0466", "year": 2019, "month": "March", "route": "Western", "details": "Deaths recorded in Western Med", "count": 53, "data_missing": false}}, {"type": "Feature", "geometry": {"type": "Point", "coordinates": [25.5, 37.5]}, "properties": {"id": "MED0456", "year": 2019, "month": "February", "route": "Eastern", "details": "Deaths recorded in Eastern Med", "count": 1, "data_missing": false}}, {"type": "Feature", "geometry": {"type": "Point", "coordinates": [12.5, 34.5]}, "properties": {"id": "MED0455", "year": 2019, "month": "February", "route": "Central", "details": "Deaths recorded in Central Med", "count": 6, "data_missing": false}}, {"type": "Feature", "geometry": {"type": "Point", "coordinates": [-5.5, 35.9]}, "properties": {"id": "MED0454", "year": 2019, "month": "February", "route": "Western", "details": "Deaths recorded in Western Med", "count": 19, "data_missing": false}}, {"type": "Feature", "geometry": {"type": "Point", "coordinates": [25.5, 37.5]}, "properties": {"id": "MED0444", "year": 2019, "month": "January", "route": "Eastern", "details": "Deaths recorded in Eastern Med", "count": 2, "data_missing": false}}, {"type": "Feature", "geometry": {"type": "Point", "coordinates": [12.5, 34.5]}, "properties": {"id": "MED0443", "year": 2019, "month": "January", "route": "Central", "details": "Deaths recorded in Central Med", "count": 152, "data_missing": false}}, {"type": "Feature", "geometry": {"type": "Point", "coordinates": [-5.5, 35.9]}, "properties": {"id": "MED0442", "year": 2019, "month": "January", "route": "Western", "details": "Deaths recorded in Western Med", "count": 62, "data_missing": false}}, {"type": "Feature", "geometry": {"type": "Point", "coordinates": [25.5, 37.5]}, "properties": {"id": "MED0432", "year": 2018, "month": "December", "route": "Eastern", "details": "Deaths recorded in Eastern Med", "count": 7, "data_missing": false}}, {"type": "Feature", "geometry": {"type": "Point", "coordinates": [12.5, 34.5]}, "properties": {"id": "MED0431", "year": 2018, "month": "December", "route": "Central", "details": "Deaths recorded in Central Med", "count": 23, "data_missing": false}}, {"type": "Feature", "geometry": {"type": "Point", "coordinates": [-5.5, 35.9]}, "properties": {"id": "MED0430", "year": 2018, "month": "December", "route": "Western", "details": "Deaths recorded in Western Med", "count": 76, "data_missing": false}}, {"type": "Feature", "geometry": {"type": "Point", "coordinates": [25.5, 37.5]}, "properties": {"id": "MED0420", "year": 2018, "month": "November", "route": "Eastern", "details": "Deaths recorded in Eastern Med", "count": 11, "data_missing": false}}, {"type": "Feature", "geometry": {"type": "Point", "coordinates": [12.5, 34.5]}, "properties": {"id": "MED0419", "year": 2018, "month": "November", "route": "Central", "details": "Deaths recorded in Central Med", "count": 24, "data_missing": false}}, {"type": "Feature", "geometry": {"type": "Point", "coordinates": [-5.5, 35.9]}, "properties": {"id": "MED0418", "year": 2018, "month": "November", "route": "Western", "details": "Deaths recorded in Western Med", "count": 114, "data_missing": false}}, {"type": "Feature", "geometry": {"type": "Point", "coordinates": [25.5, 37.5]}, "properties": {"id": "MED0408", "year": 2018, "month": "October", "route": "Eastern", "details": "Deaths recorded in Eastern Med", "count": 38, "data_missing": false}}, {"type": "Feature", "geometry": {"type": "Point", "coordinates": [12.5, 34.5]}, "properties": {"id": "MED0407", "year": 2018, "month": "October", "route": "Central", "details": "Deaths recorded in Central Med", "count": 7, "data_missing": false}}, {"type": "Feature", "geometry": {"type": "Point", "coordinates": [-5.5, 35.9]}, "properties": {"id": "MED0406", "year": 2018, "month": "October", "route": "Western", "details": "Deaths recorded in Western Med", "count": 144, "data_missing": false}}, {"type": "Feature", "geometry": {"type": "Point", "coordinates": [25.5, 37.5]}, "properties": {"id": "MED0396", "year": 2018, "month": "September", "route": "Eastern", "details": "Deaths recorded in Eastern Med", "count": 12, "data_missing": false}}, {"type": "Feature", "geometry": {"type": "Point", "coordinates": [12.5, 34.5]}, "properties": {"id": "MED0395", "year": 2018, "month": "September", "route": "Central", "details": "Deaths recorded in Central Med", "count": 130, "data_missing": false}}, {"type": "Feature", "geometry": {"type": "Point", "coordinates": [-5.5, 35.9]}, "properties": {"id": "MED0394", "year": 2018, "month": "September", "route": "Western", "details": "Deaths recorded in Western Med", "count": 99, "data_missing": false}}, {"type": "Feature", "geometry": {"type": "Point", "coordinates": [25.5, 37.5]}, "properties": {"id": "MED0384", "year": 2018, "month": "August", "route": "Eastern", "details": "Deaths recorded in Eastern Med", "count": 10, "data_missing": false}}, {"type": "Feature", "geometry": {"type": "Point", "coordinates": [12.5, 34.5]}, "properties": {"id": "MED0383", "year": 2018, "month": "August", "route": "Central", "details": "Deaths recorded in Central Med", "count": 19, "data_missing": false}}, {"type": "Feature", "geometry": {"type": "Point", "coordinates": [-5.5, 35.9]}, "properties": {"id": "MED0382", "year": 2018, "month": "August", "route": "Western", "details": "Deaths recorded in Western Med", "count": 105, "data_missing": false}}, {"type": "Feature", "geometry": {"type": "Point", "coordinates": [25.5, 37.5]}, "properties": {"id": "MED0372", "year": 2018, "month": "July", "route": "Eastern", "details": "Deaths recorded in Eastern Med", "count": 50, "data_missing": false}}, {"type": "Feature", "geometry": {"type": "Point", "coordinates": [12.5, 34.5]}, "properties": {"id": "MED0371", "year": 2018, "month": "July", "route": "Central", "details": "Deaths recorded in Central Med", "count": 157, "data_missing": false}}, {"type": "Feature", "geometry": {"type": "Point", "coordinates": [-5.5, 35.9]}, "properties": {"id": "MED0370", "year": 2018, "month": "July", "route": "Western", "details": "Deaths recorded in Western Med", "count": 17, "data_missing": false}}, {"type": "Feature", "geometry": {"type": "Point", "coordinates": [25.5, 37.5]}, "properties": {"id": "MED0360", "year": 2018, "month": "June", "route": "Eastern", "details": "Deaths recorded in Eastern Med", "count": 10, "data_missing": false}}, {"type": "Feature", "geometry": {"type": "Point", "coordinates": [12.5, 34.5]}, "properties": {"id": "MED0359", "year": 2018, "month": "June", "route": "Central", "details": "Deaths recorded in Central Med", "count": 564, "data_missing": false}}, {"type": "Feature", "geometry": {"type": "Point", "coordinates": [-5.5, 35.9]}, "properties": {"id": "MED0358", "year": 2018, "month": "June", "route": "Western", "details": "Deaths recorded in Western Med", "count": 55, "data_missing": false}}, {"type": "Feature", "geometry": {"type": "Point", "coordinates": [25.5, 37.5]}, "properties": {"id": "MED0348", "year": 2018, "month": "May", "route": "Eastern", "details": "Deaths recorded in Eastern Med", "count": 16, "data_missing": false}}, {"type": "Feature", "geometry": {"type": "Point", "coordinates": [12.5, 34.5]}, "properties": {"id": "MED0347", "year": 2018, "month": "May", "route": "Central", "details": "Deaths recorded in Central Med", "count": 11, "data_missing": false}}, {"type": "Feature", "geometry": {"type": "Point", "coordinates": [-5.5, 35.9]}, "properties": {"id": "MED0346", "year": 2018, "month": "May", "route": "Western", "details": "Deaths recorded in Western Med", "count": 21, "data_missing": false}}, {"type": "Feature", "geometry": {"type": "Point", "coordinates": [25.5, 37.5]}, "properties": {"id": "MED0336", "year": 2018, "month": "April", "route": "Eastern", "details": "Deaths recorded in Eastern Med", "count": 0, "data_missing": false}}, {"type": "Feature", "geometry": {"type": "Point", "coordinates": [12.5, 34.5]}, "properties": {"id": "MED0335", "year": 2018, "month": "April", "route": "Central", "details": "Deaths recorded in Central Med", "count": 20, "data_missing": false}}, {"type": "Feature", "geometry": {"type": "Point", "coordinates": [-5.5, 35.9]}, "properties": {"id": "MED0334", "year": 2018, "month": "April", "route": "Western", "details": "Deaths recorded in Western Med", "count": 90, "data_missing": false}}, {"type": "Feature", "geometry": {"type": "Point", "coordinates": [25.5, 37.5]}, "properties": {"id": "MED0324", "year": 2018, "month": "March", "route": "Eastern", "details": "Deaths recorded in Eastern Med", "count": 19, "data_missing": false}}, {"type": "Feature", "geometry": {"type": "Point", "coordinates": [12.5, 34.5]}, "properties": {"id": "MED0323", "year": 2018, "month": "March", "route": "Central", "details": "Deaths recorded in Central Med", "count": 23, "data_missing": false}}, {"type": "Feature", "geometry": {"type": "Point", "coordinates": [-5.5, 35.9]}, "properties": {"id": "MED0322", "year": 2018, "month": "March", "route": "Western", "details": "Deaths recorded in Western Med", "count": 25, "data_missing": false}}, {"type": "Feature", "geometry": {"type": "Point", "coordinates": [25.5, 37.5]}, "properties": {"id": "MED0312", "year": 2018, "month": "February", "route": "Eastern", "details": "Deaths recorded in Eastern Med", "count": 1, "data_missing": false}}, {"type": "Feature", "geometry": {"type": "Point", "coordinates": [12.5, 34.5]}, "properties": {"id": "MED0311", "year": 2018, "month": "February", "route": "Central", "details": "Deaths recorded in Central Med", "count": 121, "data_missing": false}}, {"type": "Feature", "geometry": {"type": "Point", "coordinates": [-5.5, 35.9]}, "properties": {"id": "MED0310", "year": 2018, "month": "February", "route": "Western", "details": "Deaths recorded in Western Med", "count": 75, "data_missing": false}}, {"type": "Feature", "geometry": {"type": "Point", "coordinates": [25.5, 37.5]}, "properties": {"id": "MED0300", "year": 2018, "month": "January", "route": "Eastern", "details": "Deaths recorded in Eastern Med", "count": 0, "data_missing": false}}, {"type": "Feature", "geometry": {"type": "Point", "coordinates": [12.5, 34.5]}, "properties": {"id": "MED0299", "year": 2018, "month": "January", "route": "Central", "details": "Deaths recorded in Central Med", "count": 215, "data_missing": false}}, {"type": "Feature", "geometry": {"type": "Point", "coordinates": [-5.5, 35.9]}, "properties": {"id": "MED0298", "year": 2018, "month": "January", "route": "Western", "details": "Deaths recorded in Western Med", "count": 28, "data_missing": false}}, {"type": "Feature", "geometry": {"type": "Point", "coordinates": [25.5, 37.5]}, "properties": {"id": "MED0288", "year": 2017, "month": "December", "route": "Eastern", "details": "Deaths recorded in Eastern Med", "count": 1, "data_missing": false}}, {"type": "Feature", "geometry": {"type": "Point", "coordinates": [12.5, 34.5]}, "properties": {"id": "MED0287", "year": 2017, "month": "December", "route": "Central", "details": "Deaths recorded in Central Med", "count": 9, "data_missing": false}}, {"type": "Feature", "geometry": {"type": "Point", "coordinates": [-5.5, 35.9]}, "properties": {"id": "MED0286", "year": 2017, "month": "December", "route": "Western", "details": "Deaths recorded in Western Med", "count": 16, "data_missing": false}}, {"type": "Feature", "geometry": {"type": "Point", "coordinates": [25.5, 37.5]}, "properties": {"id": "MED0276", "year": 2017, "month": "November", "route": "Eastern", "details": "Deaths recorded in Eastern Med", "count": 15, "data_missing": false}}, {"type": "Feature", "geometry": {"type": "Point", "coordinates": [12.5, 34.5]}, "properties": {"id": "MED0275", "year": 2017, "month": "November", "route": "Central", "details": "Deaths recorded in Central Med", "count": 193, "data_missing": false}}, {"type": "Feature", "geometry": {"type": "Point", "coordinates": [-5.5, 35.9]}, "properties": {"id": "MED0274", "year": 2017, "month": "November", "route": "Western", "details": "Deaths recorded in Western Med", "count": 54, "data_missing": false}}, {"type": "Feature", "geometry": {"type": "Point", "coordinates": [25.5, 37.5]}, "properties": {"id": "MED0264", "year": 2017, "month": "October", "route": "Eastern", "details": "Deaths recorded in Eastern Med", "count": 0, "data_missing": false}}, {"type": "Feature", "geometry": {"type": "Point", "coordinates": [12.5, 34.5]}, "properties": {"id": "MED0263", "year": 2017, "month": "October", "route": "Central", "details": "Deaths recorded in Central Med", "count": 166, "data_missing": false}}, {"type": "Feature", "geometry": {"type": "Point", "coordinates": [-5.5, 35.9]}, "properties": {"id": "MED0262", "year": 2017, "month": "October", "route": "Western", "details": "Deaths recorded in Western Med", "count": 9, "data_missing": false}}, {"type": "Feature", "geometry": {"type": "Point", "coordinates": [25.5, 37.5]}, "properties": {"id": "MED0252", "year": 2017, "month": "September", "route": "Eastern", "details": "Deaths recorded in Eastern Med", "count": 1, "data_missing": false}}, {"type": "Feature", "geometry": {"type": "Point", "coordinates": [12.5, 34.5]}, "properties": {"id": "MED0251", "year": 2017, "month": "September", "route": "Central", "details": "Deaths recorded in Central Med", "count": 102, "data_missing": false}}, {"type": "Feature", "geometry": {"type": "Point", "coordinates": [-5.5, 35.9]}, "properties": {"id": "MED0250", "year": 2017, "month": "September", "route": "Western", "details": "Deaths recorded in Western Med", "count": 12, "data_missing": false}}, {"type": "Feature", "geometry": {"type": "Point", "coordinates": [25.5, 37.5]}, "properties": {"id": "MED0240", "year": 2017, "month": "August", "route": "Eastern", "details": "Deaths recorded in Eastern Med", "count": 0, "data_missing": false}}, {"type": "Feature", "geometry": {"type": "Point", "coordinates": [12.5, 34.5]}, "properties": {"id": "MED0239", "year": 2017, "month": "August", "route": "Central", "details": "Deaths recorded in Central Med", "count": 143, "data_missing": false}}, {"type": "Feature", "geometry": {"type": "Point", "coordinates": [-5.5, 35.9]}, "properties": {"id": "MED0238", "year": 2017, "month": "August", "route": "Western", "details": "Deaths recorded in Western Med", "count": 8, "data_missing": false}}, {"type": "Feature", "geometry": {"type": "Point", "coordinates": [25.5, 37.5]}, "properties": {"id": "MED0228", "year": 2017, "month": "July", "route": "Eastern", "details": "Deaths recorded in Eastern Med", "count": 8, "data_missing": false}}, {"type": "Feature", "geometry": {"type": "Point", "coordinates": [12.5, 34.5]}, "properties": {"id": "MED0227", "year": 2017, "month": "July", "route": "Central", "details": "Deaths recorded in Central Med", "count": 68, "data_missing": false}}, {"type": "Feature", "geometry": {"type": "Point", "coordinates": [-5.5, 35.9]}, "properties": {"id": "MED0226", "year": 2017, "month": "July", "route": "Western", "details": "Deaths recorded in Western Med", "count": 56, "data_missing": false}}, {"type": "Feature", "geometry": {"type": "Point", "coordinates": [25.5, 37.5]}, "properties": {"id": "MED0216", "year": 2017, "month": "June", "route": "Eastern", "details": "Deaths recorded in Eastern Med", "count": 0, "data_missing": false}}, {"type": "Feature", "geometry": {"type": "Point", "coordinates": [12.5, 34.5]}, "properties": {"id": "MED0215", "year": 2017, "month": "June", "route": "Central", "details": "Deaths recorded in Central Med", "count": 529, "data_missing": false}}, {"type": "Feature", "geometry": {"type": "Point", "coordinates": [-5.5, 35.9]}, "properties": {"id": "MED0214", "year": 2017, "month": "June", "route": "Western", "details": "Deaths recorded in Western Med", "count": 10, "data_missing": false}}, {"type": "Feature", "geometry": {"type": "Point", "coordinates": [25.5, 37.5]}, "properties": {"id": "MED0204", "year": 2017, "month": "May", "route": "Eastern", "details": "Deaths recorded in Eastern Med", "count": 0, "data_missing": false}}, {"type": "Feature", "geometry": {"type": "Point", "coordinates": [12.5, 34.5]}, "properties": {"id": "MED0203", "year": 2017, "month": "May", "route": "Central", "details": "Deaths recorded in Central Med", "count": 621, "data_missing": false}}, {"type": "Feature", "geometry": {"type": "Point", "coordinates": [-5.5, 35.9]}, "properties": {"id": "MED0202", "year": 2017, "month": "May", "route": "Western", "details": "Deaths recorded in Western Med", "count": 2, "data_missing": false}}, {"type": "Feature", "geometry": {"type": "Point", "coordinates": [25.5, 37.5]}, "properties": {"id": "MED0192", "year": 2017, "month": "April", "route": "Eastern", "details": "Deaths recorded in Eastern Med", "count": 24, "data_missing": false}}, {"type": "Feature", "geometry": {"type": "Point", "coordinates": [12.5, 34.5]}, "properties": {"id": "MED0191", "year": 2017, "month": "April", "route": "Central", "details": "Deaths recorded in Central Med", "count": 280, "data_missing": false}}, {"type": "Feature", "geometry": {"type": "Point", "coordinates": [-5.5, 35.9]}, "properties": {"id": "MED0190", "year": 2017, "month": "April", "route": "Western", "details": "Deaths recorded in Western Med", "count": 9, "data_missing": false}}, {"type": "Feature", "geometry": {"type": "Point", "coordinates": [25.5, 37.5]}, "properties": {"id": "MED0180", "year": 2017, "month": "March", "route": "Eastern", "details": "Deaths recorded in Eastern Med", "count": 11, "data_missing": false}}, {"type": "Feature", "geometry": {"type": "Point", "coordinates": [12.5, 34.5]}, "properties": {"id": "MED0179", "year": 2017, "month": "March", "route": "Central", "details": "Deaths recorded in Central Med", "count": 300, "data_missing": false}}, {"type": "Feature", "geometry": {"type": "Point", "coordinates": [-5.5, 35.9]}, "properties": {"id": "MED0178", "year": 2017, "month": "March", "route": "Western", "details": "Deaths recorded in Western Med", "count": 7, "data_missing": false}}, {"type": "Feature", "geometry": {"type": "Point", "coordinates": [25.5, 37.5]}, "properties": {"id": "MED0168", "year": 2017, "month": "February", "route": "Eastern", "details": "Deaths recorded in Eastern Med", "count": 1, "data_missing": false}}, {"type": "Feature", "geometry": {"type": "Point", "coordinates": [12.5, 34.5]}, "properties": {"id": "MED0167", "year": 2017, "month": "February", "route": "Central", "details": "Deaths recorded in Central Med", "count": 217, "data_missing": false}}, {"type": "Feature", "geometry": {"type": "Point", "coordinates": [-5.5, 35.9]}, "properties": {"id": "MED0166", "year": 2017, "month": "February", "route": "Western", "details": "Deaths recorded in Western Med", "count": 13, "data_missing": false}}, {"type": "Feature", "geometry": {"type": "Point", "coordinates": [25.5, 37.5]}, "properties": {"id": "MED0156", "year": 2017, "month": "January", "route": "Eastern", "details": "Deaths recorded in Eastern Med", "count": 1, "data_missing": false}}, {"type": "Feature", "geometry": {"type": "Point", "coordinates": [12.5, 34.5]}, "properties": {"id": "MED0155", "year": 2017, "month": "January", "route": "Central", "details": "Deaths recorded in Central Med", "count": 225, "data_missing": false}}, {"type": "Feature", "geometry": {"type": "Point", "coordinates": [-5.5, 35.9]}, "properties": {"id": "MED0154", "year": 2017, "month": "January", "route": "Western", "details": "Deaths recorded in Western Med", "count": 28, "data_missing": false}}, {"type": "Feature", "geometry": {"type": "Point", "coordinates": [25.5, 37.5]}, "properties": {"id": "MED0144", "year": 2016, "month": "December", "route": "Eastern", "details": "Deaths recorded in Eastern Med", "count": 5, "data_missing": false}}, {"type": "Feature", "geometry": {"type": "Point", "coordinates": [12.5, 34.5]}, "properties": {"id": "MED0143", "year": 2016, "month": "December", "route": "Central", "details": "Deaths recorded in Central Med", "count": 365, "data_missing": false}}, {"type": "Feature", "geometry": {"type": "Point", "coordinates": [-5.5, 35.9]}, "properties": {"id": "MED0142", "year": 2016, "month": "December", "route": "Western", "details": "Deaths recorded in Western Med", "count": 7, "data_missing": false}}, {"type": "Feature", "geometry": {"type": "Point", "coordinates": [25.5, 37.5]}, "properties": {"id": "MED0132", "year": 2016, "month": "November", "route": "Eastern", "details": "Deaths recorded in Eastern Med", "count": 14, "data_missing": false}}, {"type": "Feature", "geometry": {"type": "Point", "coordinates": [12.5, 34.5]}, "properties": {"id": "MED0131", "year": 2016, "month": "November", "route": "Central", "details": "Deaths recorded in Central Med", "count": 703, "data_missing": false}}, {"type": "Feature", "geometry": {"type": "Point", "coordinates": [-5.5, 35.9]}, "properties": {"id": "MED0130", "year": 2016, "month": "November", "route": "Western", "details": "Deaths recorded in Western Med", "count": 1, "data_missing": false}}, {"type": "Feature", "geometry": {"type": "Point", "coordinates": [25.5, 37.5]}, "properties": {"id": "MED0120", "year": 2016, "month": "October", "route": "Eastern", "details": "Deaths recorded in Eastern Med", "count": 2, "data_missing": false}}, {"type": "Feature", "geometry": {"type": "Point", "coordinates": [12.5, 34.5]}, "properties": {"id": "MED0119", "year": 2016, "month": "October", "route": "Central", "details": "Deaths recorded in Central Med", "count": 431, "data_missing": false}}, {"type": "Feature", "geometry": {"type": "Point", "coordinates": [-5.5, 35.9]}, "properties": {"id": "MED0118", "year": 2016, "month": "October", "route": "Western", "details": "Deaths recorded in Western Med", "count": 4, "data_missing": false}}, {"type": "Feature", "geometry": {"type": "Point", "coordinates": [25.5, 37.5]}, "properties": {"id": "MED0108", "year": 2016, "month": "September", "route": "Eastern", "details": "Deaths recorded in Eastern Med", "count": 27, "data_missing": false}}, {"type": "Feature", "geometry": {"type": "Point", "coordinates": [12.5, 34.5]}, "properties": {"id": "MED0107", "year": 2016, "month": "September", "route": "Central", "details": "Deaths recorded in Central Med", "count": 341, "data_missing": false}}, {"type": "Feature", "geometry": {"type": "Point", "coordinates": [-5.5, 35.9]}, "properties": {"id": "MED0106", "year": 2016, "month": "September", "route": "Western", "details": "Deaths recorded in Western Med", "count": 0, "data_missing": false}}, {"type": "Feature", "geometry": {"type": "Point", "coordinates": [25.5, 37.5]}, "properties": {"id": "MED0096", "year": 2016, "month": "August", "route": "Eastern", "details": "Deaths recorded in Eastern Med", "count": 3, "data_missing": false}}, {"type": "Feature", "geometry": {"type": "Point", "coordinates": [12.5, 34.5]}, "properties": {"id": "MED0095", "year": 2016, "month": "August", "route": "Central", "details": "Deaths recorded in Central Med", "count": 40, "data_missing": false}}, {"type": "Feature", "geometry": {"type": "Point", "coordinates": [-5.5, 35.9]}, "properties": {"id": "MED0094", "year": 2016, "month": "August", "route": "Western", "details": "Deaths recorded in Western Med", "count": 19, "data_missing": false}}, {"type": "Feature", "geometry": {"type": "Point", "coordinates": [25.5, 37.5]}, "properties": {"id": "MED0084", "year": 2016, "month": "July", "route": "Eastern", "details": "Deaths recorded in Eastern Med", "count": 7, "data_missing": false}}, {"type": "Feature", "geometry": {"type": "Point", "coordinates": [12.5, 34.5]}, "properties": {"id": "MED0083", "year": 2016, "month": "July", "route": "Central", "details": "Deaths recorded in Central Med", "count": 208, "data_missing": false}}, {"type": "Feature", "geometry": {"type": "Point", "coordinates": [-5.5, 35.9]}, "properties": {"id": "MED0082", "year": 2016, "month": "July", "route": "Western", "details": "Deaths recorded in Western Med", "count": 11, "data_missing": false}}, {"type": "Feature", "geometry": {"type": "Point", "coordinates": [25.5, 37.5]}, "properties": {"id": "MED0072", "year": 2016, "month": "June", "route": "Eastern", "details": "Deaths recorded in Eastern Med", "count": 0, "data_missing": false}}, {"type": "Feature", "geometry": {"type": "Point", "coordinates": [12.5, 34.5]}, "properties": {"id": "MED0071", "year": 2016, "month": "June", "route": "Central", "details": "Deaths recorded in Central Med", "count": 388, "data_missing": false}}, {"type": "Feature", "geometry": {"type": "Point", "coordinates": [-5.5, 35.9]}, "properties": {"id": "MED0070", "year": 2016, "month": "June", "route": "Western", "details": "Deaths recorded in Western Med", "count": 1, "data_missing": false}}, {"type": "Feature", "geometry": {"type": "Point", "coordinates": [25.5, 37.5]}, "properties": {"id": "MED0060", "year": 2016, "month": "May", "route": "Eastern", "details": "Deaths recorded in Eastern Med", "count": 0, "data_missing": false}}, {"type": "Feature", "geometry": {"type": "Point", "coordinates": [12.5, 34.5]}, "properties": {"id": "MED0059", "year": 2016, "month": "May", "route": "Central", "details": "Deaths recorded in Central Med", "count": 1130, "data_missing": false}}, {"type": "Feature", "geometry": {"type": "Point", "coordinates": [-5.5, 35.9]}, "properties": {"id": "MED0058", "year": 2016, "month": "May", "route": "Western", "details": "Deaths recorded in Western Med", "count": 48, "data_missing": false}}, {"type": "Feature", "geometry": {"type": "Point", "coordinates": [25.5, 37.5]}, "properties": {"id": "MED0048", "year": 2016, "month": "April", "route": "Eastern", "details": "Deaths recorded in Eastern Med", "count": 10, "data_missing": false}}, {"type": "Feature", "geometry": {"type": "Point", "coordinates": [12.5, 34.5]}, "properties": {"id": "MED0047", "year": 2016, "month": "April", "route": "Central", "details": "Deaths recorded in Central Med", "count": 611, "data_missing": false}}, {"type": "Feature", "geometry": {"type": "Point", "coordinates": [-5.5, 35.9]}, "properties": {"id": "MED0046", "year": 2016, "month": "April", "route": "Western", "details": "Deaths recorded in Western Med", "count": 9, "data_missing": false}}, {"type": "Feature", "geometry": {"type": "Point", "coordinates": [25.5, 37.5]}, "properties": {"id": "MED0036", "year": 2016, "month": "March", "route": "Eastern", "details": "Deaths recorded in Eastern Med", "count": 45, "data_missing": false}}, {"type": "Feature", "geometry": {"type": "Point", "coordinates": [12.5, 34.5]}, "properties": {"id": "MED0035", "year": 2016, "month": "March", "route": "Central", "details": "Deaths recorded in Central Med", "count": 258, "data_missing": false}}, {"type": "Feature", "geometry": {"type": "Point", "coordinates": [-5.5, 35.9]}, "properties": {"id": "MED0034", "year": 2016, "month": "March", "route": "Western", "details": "Deaths recorded in Western Med", "count": 21, "data_missing": false}}, {"type": "Feature", "geometry": {"type": "Point", "coordinates": [25.5, 37.5]}, "properties": {"id": "MED0024", "year": 2016, "month": "February", "route": "Eastern", "details": "Deaths recorded in Eastern Med", "count": 46, "data_missing": false}}, {"type": "Feature", "geometry": {"type": "Point", "coordinates": [12.5, 34.5]}, "properties": {"id": "MED0023", "year": 2016, "month": "February", "route": "Central", "details": "Deaths recorded in Central Med", "count": 7, "data_missing": false}}, {"type": "Feature", "geometry": {"type": "Point", "coordinates": [-5.5, 35.9]}, "properties": {"id": "MED0022", "year": 2016, "month": "February", "route": "Western", "details": "Deaths recorded in Western Med", "count": 2, "data_missing": false}}, {"type": "Feature", "geometry": {"type": "Point", "coordinates": [25.5, 37.5]}, "properties": {"id": "MED0012", "year": 2016, "month": "January", "route": "Eastern", "details": "Deaths recorded in Eastern Med", "count": 275, "data_missing": false}}, {"type": "Feature", "geometry": {"type": "Point", "coordinates": [12.5, 34.5]}, "properties": {"id": "MED0011", "year": 2016, "month": "January", "route": "Central", "details": "Deaths recorded in Central Med", "count": 90, "data_missing": false}}, {"type": "Feature", "geometry": {"type": "Point", "coordinates": [-5.5, 35.9]}, "properties": {"id": "MED0010", "year": 2016, "month": "January", "route": "Western", "details": "Deaths recorded in Western Med", "count": 5, "data_missing": false}}]}